{
  "type": "FeatureCollection",
  "features": [
    {
      "type": "Feature",
      "properties": {
        "norad_id": 22490,
        "name": "SCD 1",
        "group": "resource",
        "lat": -21.931297396325082,
        "lon": -148.92962266716884,
        "alt_km": 709.6743469895619,
        "timestamp": "2025-12-04T05:42:43.034204+00:00",
        "meta_object_name": "SCD 1",
        "meta_object_id": "1993-009B",
        "meta_epoch": "2025-12-03T11:00:20.206080",
        "meta_mean_motion": 14.45987996,
        "meta_eccentricity": 0.00418156,
        "meta_inclination": 24.971,
        "meta_ra_of_asc_node": 335.9791,
        "meta_arg_of_pericenter": 226.2897,
        "meta_mean_anomaly": 270.2791,
        "meta_ephemeris_type": 0,
        "meta_classification_type": "U",
        "meta_norad_cat_id": 22490,
        "meta_element_set_no": 999,
        "meta_rev_at_epoch": 73275,
        "meta_bstar": 0.00014086793,
        "meta_mean_motion_dot": 7.02e-06,
        "meta_mean_motion_ddot": 0,
        "tle_line1": "1 22490U 93009B   25337.45856720  .00000702  00000+0  14087-3 0  9996",
        "tle_line2": "2 22490  24.9710 335.9791 0041815 226.2897 270.2791 14.45987996732758"
      },
      "geometry": {
        "type": "Point",
        "coordinates": [
          -148.92962266716884,
          -21.931297396325082
        ]
      }
    },
    {
      "type": "Feature",
      "properties": {
        "norad_id": 25397,
        "name": "TECHSAT 1B (GO-32)",
        "group": "resource",
        "lat": 20.85558258223132,
        "lon": 144.71234040661554,
        "alt_km": 810.4001275909841,
        "timestamp": "2025-12-04T05:42:43.034232+00:00",
        "meta_object_name": "TECHSAT 1B (GO-32)",
        "meta_object_id": "1998-043D",
        "meta_epoch": "2025-12-03T22:13:32.295072",
        "meta_mean_motion": 14.24373188,
        "meta_eccentricity": 0.00022214,
        "meta_inclination": 98.9913,
        "meta_ra_of_asc_node": 320.9351,
        "meta_arg_of_pericenter": 71.8261,
        "meta_mean_anomaly": 288.3159,
        "meta_ephemeris_type": 0,
        "meta_classification_type": "U",
        "meta_norad_cat_id": 25397,
        "meta_element_set_no": 999,
        "meta_rev_at_epoch": 42353,
        "meta_bstar": 0.00010215197,
        "meta_mean_motion_dot": 1.9e-06,
        "meta_mean_motion_ddot": 0,
        "tle_line1": "1 25397U 98043D   25337.92606823  .00000190  00000+0  10215-3 0  9997",
        "tle_line2": "2 25397  98.9913 320.9351 0002221  71.8261 288.3159 14.24373188423536"
      },
      "geometry": {
        "type": "Point",
        "coordinates": [
          144.71234040661554,
          20.85558258223132
        ]
      }
    },
    {
      "type": "Feature",
      "properties": {
        "norad_id": 25504,
        "name": "SCD 2",
        "group": "resource",
        "lat": -23.028868480408093,
        "lon": 128.4813981612561,
        "alt_km": 736.9685365440901,
        "timestamp": "2025-12-04T05:42:43.034248+00:00",
        "meta_object_name": "SCD 2",
        "meta_object_id": "1998-060A",
        "meta_epoch": "2025-12-03T07:34:14.746944",
        "meta_mean_motion": 14.45414838,
        "meta_eccentricity": 0.0016689,
        "meta_inclination": 24.9937,
        "meta_ra_of_asc_node": 200.0088,
        "meta_arg_of_pericenter": 212.8278,
        "meta_mean_anomaly": 308.9112,
        "meta_ephemeris_type": 0,
        "meta_classification_type": "U",
        "meta_norad_cat_id": 25504,
        "meta_element_set_no": 999,
        "meta_rev_at_epoch": 43195,
        "meta_bstar": 0.00010911,
        "meta_mean_motion_dot": 5.73e-06,
        "meta_mean_motion_ddot": 0,
        "tle_line1": "1 25504U 98060A   25337.31544846  .00000573  00000+0  10911-3 0  9993",
        "tle_line2": "2 25504  24.9937 200.0088 0016689 212.8278 308.9112 14.45414838431958"
      },
      "geometry": {
        "type": "Point",
        "coordinates": [
          128.4813981612561,
          -23.028868480408093
        ]
      }
    },
    {
      "type": "Feature",
      "properties": {
        "norad_id": 25757,
        "name": "DLR-TUBSAT",
        "group": "resource",
        "lat": -60.988280196892646,
        "lon": 126.54720691216686,
        "alt_km": 716.3096571291708,
        "timestamp": "2025-12-04T05:42:43.034261+00:00",
        "meta_object_name": "DLR-TUBSAT",
        "meta_object_id": "1999-029B",
        "meta_epoch": "2025-12-03T21:59:10.894848",
        "meta_mean_motion": 14.52352412,
        "meta_eccentricity": 0.0013422,
        "meta_inclination": 98.6555,
        "meta_ra_of_asc_node": 322.1579,
        "meta_arg_of_pericenter": 220.596,
        "meta_mean_anomaly": 139.4235,
        "meta_ephemeris_type": 0,
        "meta_classification_type": "U",
        "meta_norad_cat_id": 25757,
        "meta_element_set_no": 999,
        "meta_rev_at_epoch": 40490,
        "meta_bstar": 8.1828387e-05,
        "meta_mean_motion_dot": 2.85e-06,
        "meta_mean_motion_ddot": 0,
        "tle_line1": "1 25757U 99029B   25337.91609832  .00000285  00000+0  81828-4 0  9998",
        "tle_line2": "2 25757  98.6555 322.1579 0013422 220.5960 139.4235 14.52352412404904"
      },
      "geometry": {
        "type": "Point",
        "coordinates": [
          126.54720691216686,
          -60.988280196892646
        ]
      }
    },
    {
      "type": "Feature",
      "properties": {
        "norad_id": 25994,
        "name": "TERRA",
        "group": "resource",
        "lat": 43.29679729128343,
        "lon": 22.64227192523065,
        "alt_km": 685.7444928867344,
        "timestamp": "2025-12-04T05:42:43.034273+00:00",
        "meta_object_name": "TERRA",
        "meta_object_id": "1999-068A",
        "meta_epoch": "2025-12-03T22:05:08.452608",
        "meta_mean_motion": 14.60937035,
        "meta_eccentricity": 0.00034241,
        "meta_inclination": 97.9761,
        "meta_ra_of_asc_node": 29.9277,
        "meta_arg_of_pericenter": 115.5396,
        "meta_mean_anomaly": 58.1773,
        "meta_ephemeris_type": 0,
        "meta_classification_type": "U",
        "meta_norad_cat_id": 25994,
        "meta_element_set_no": 999,
        "meta_rev_at_epoch": 38109,
        "meta_bstar": 0.0002141,
        "meta_mean_motion_dot": 1.004e-05,
        "meta_mean_motion_ddot": 0,
        "tle_line1": "1 25994U 99068A   25337.92023672  .00001004  00000+0  21410-3 0  9997",
        "tle_line2": "2 25994  97.9761  29.9277 0003424 115.5396  58.1773 14.60937035381099"
      },
      "geometry": {
        "type": "Point",
        "coordinates": [
          22.64227192523065,
          43.29679729128343
        ]
      }
    },
    {
      "type": "Feature",
      "properties": {
        "norad_id": 27004,
        "name": "MAROC-TUBSAT",
        "group": "resource",
        "lat": -73.93412257874184,
        "lon": -176.62538137507948,
        "alt_km": 991.8248280898433,
        "timestamp": "2025-12-04T05:42:43.034285+00:00",
        "meta_object_name": "MAROC-TUBSAT",
        "meta_object_id": "2001-056D",
        "meta_epoch": "2025-12-03T17:54:00.137088",
        "meta_mean_motion": 13.70252218,
        "meta_eccentricity": 0.0019098,
        "meta_inclination": 99.7912,
        "meta_ra_of_asc_node": 146.0334,
        "meta_arg_of_pericenter": 284.0825,
        "meta_mean_anomaly": 92.2061,
        "meta_ephemeris_type": 0,
        "meta_classification_type": "U",
        "meta_norad_cat_id": 27004,
        "meta_element_set_no": 999,
        "meta_rev_at_epoch": 19942,
        "meta_bstar": 3.5064177e-05,
        "meta_mean_motion_dot": -1.6e-07,
        "meta_mean_motion_ddot": 0,
        "tle_line1": "1 27004U 01056D   25337.74583492 -.00000016  00000+0  35064-4 0  9996",
        "tle_line2": "2 27004  99.7912 146.0334 0019098 284.0825  92.2061 13.70252218199425"
      },
      "geometry": {
        "type": "Point",
        "coordinates": [
          -176.62538137507948,
          -73.93412257874184
        ]
      }
    },
    {
      "type": "Feature",
      "properties": {
        "norad_id": 27424,
        "name": "AQUA",
        "group": "resource",
        "lat": -70.29384263739654,
        "lon": 94.606839791992,
        "alt_km": 695.140788577417,
        "timestamp": "2025-12-04T05:42:43.034296+00:00",
        "meta_object_name": "AQUA",
        "meta_object_id": "2002-022A",
        "meta_epoch": "2025-12-03T22:24:45.484128",
        "meta_mean_motion": 14.61776098,
        "meta_eccentricity": 7.58e-05,
        "meta_inclination": 98.4024,
        "meta_ra_of_asc_node": 298.6706,
        "meta_arg_of_pericenter": 109.5998,
        "meta_mean_anomaly": 342.9166,
        "meta_ephemeris_type": 0,
        "meta_classification_type": "U",
        "meta_norad_cat_id": 27424,
        "meta_element_set_no": 999,
        "meta_rev_at_epoch": 25474,
        "meta_bstar": 0.00041796252,
        "meta_mean_motion_dot": 2.036e-05,
        "meta_mean_motion_ddot": 0,
        "tle_line1": "1 27424U 02022A   25337.93385977  .00002036  00000+0  41796-3 0  9996",
        "tle_line2": "2 27424  98.4024 298.6706 0000758 109.5998 342.9166 14.61776098254749"
      },
      "geometry": {
        "type": "Point",
        "coordinates": [
          94.606839791992,
          -70.29384263739654
        ]
      }
    }
  ]
}